CUTE-1 (CO-55)          
1 27844U 03031E   24324.01465549  .00000622  00000+0  29175-3 0  9997
2 27844  98.6785 328.9401 0010701  59.0875 301.1355 14.23645868109847
CUBESAT XI-IV (CO-57)   
1 27848U 03031J   24323.73099436  .00000530  00000+0  25436-3 0  9991
2 27848  98.6815 328.8112 0010729  74.7369 285.4995 14.23032217109511
CUBESAT XI-V            
1 28895U 05043F   24323.85151978  .00003158  00000+0  54190-3 0  9990
2 28895  98.2232 100.2674 0014492 226.3866 133.6138 14.69370842 17156
CUTE-1.7+APD II (CO-65) 
1 32785U 08021C   24324.15562833  .00006917  00000+0  55487-3 0  9998
2 32785  97.7726 288.7126 0011325 171.0678 189.0749 15.00362475898759
AAUSAT-II               
1 32788U 08021F   24323.89262634  .00050980  00000+0  15765-2 0  9990
2 32788  97.6050 306.1569 0005815  44.5376 315.6332 15.33316137901988
CANX-2                  
1 32790U 08021H   24323.86440130  .00006525  00000+0  55221-3 0  9997
2 32790  97.7916 286.9982 0011269 164.7820 195.3744 14.98318428898504
SEEDS II (CO-66)        
1 32791U 08021J   24323.36147402  .00012911  00000+0  79344-3 0  9997
2 32791  97.7086 294.4303 0006650 122.3423 237.8451 15.10183763899810
SWISSCUBE               
1 35932U 09051B   24324.43753282  .00002202  00000+0  46662-3 0  9998
2 35932  98.4485 210.7704 0006414 188.5053 171.6039 14.60227190805246
BEESAT-1                
1 35933U 09051C   24324.13507971  .00001780  00000+0  38278-3 0  9992
2 35933  98.4416 211.1543 0004590 200.6705 159.4309 14.59801715805300
ITUPSAT1                
1 35935U 09051E   24324.26426115  .00001810  00000+0  39861-3 0  9991
2 35935  98.4519 210.9790 0006673 212.9441 147.1343 14.58676811804895
TISAT 1                 
1 36799U 10035E   24324.45472398  .00014986  00000+0  96339-3 0  9990
2 36799  98.0702 221.0335 0006453  71.0730 289.1195 15.08507015780613
AEROCUBE 4.5A           
1 38767U 12048K   24323.82465165  .00019408  00000+0  78463-3 0  9999
2 38767  64.6510 174.1200 0110336 328.5283  30.9270 15.19306184283872
AEROCUBE 4.5B           
1 38768U 12048L   24324.32124197  .00099538  00000+0  16333-2 0  9992
2 38768  64.6474  81.9502 0072733 315.8190  43.7154 15.48884102285223
STRAND-1                
1 39090U 13009E   24323.79647258  .00000642  00000+0  23336-3 0  9997
2 39090  98.3781 147.8790 0009335 144.9905 215.1896 14.36460779614434
BRITE-AUSTRIA           
1 39091U 13009F   24323.80720585  .00000436  00000+0  16422-3 0  9994
2 39091  98.3830 147.1642 0010756 152.7382 207.4371 14.36069532614450
NEE-01 PEGASO           
1 39151U 13018B   24324.26700628  .00005225  00000+0  57126-3 0  9995
2 39151  98.0527  83.2903 0013435 252.2727 107.7022 14.88230042625026
ESTCUBE 1               
1 39161U 13021C   24324.39714130  .00003193  00000+0  44804-3 0  9998
2 39161  97.8105  26.1430 0010007  88.0192 272.2165 14.78097294620042
POPACS 1                
1 39268U 13055D   24324.42873543  .00056258  65913-7  78059-3 0  9992
2 39268  80.9832 330.7067 0335754 306.4830  50.5885 15.11774764585290
POPACS 2                
1 39269U 13055E   24323.57452151  .00030945  00000+0  67130-3 0  9997
2 39269  81.0003  70.8562 0519738 209.4610 147.6365 14.64701527578139
POPACS 3                
1 39270U 13055F   24323.86668311  .00011153  00000+0  29507-3 0  9994
2 39270  81.0050 126.6681 0608789   5.5156 355.2337 14.41778141555211
ZACUBE-1 (TSHEPISOSAT)  
1 39417U 13066B   24323.83667441  .00008425  00000+0  80266-3 0  9996
2 39417  97.7558 276.8194 0048284  10.9504 349.2754 14.92737651594624
WNISAT-1                
1 39423U 13066H   24323.75020187  .00002126  00000+0  40840-3 0  9990
2 39423  97.6650 145.6288 0166617 243.5202 114.8825 14.56144792582923
TRITON-1                
1 39427U 13066M   24324.44999792  .00006374  00000+0  85104-3 0  9999
2 39427  97.8390 237.6160 0097117 302.1854  56.9966 14.76631477589296
DELFI-N3XT              
1 39428U 13066N   24323.73615880  .00011190  00000+0  12825-2 0  9995
2 39428  97.8359 238.3915 0091722 307.4194  51.8697 14.83047208588957
GOMX-1                  
1 39430U 13066Q   24324.44041857  .00002858  00000+0  46192-3 0  9990
2 39430  97.7058 189.3881 0137337 118.1213 243.3950 14.65929860585774
CUBEBUG-2 (LO-74)       
1 39440U 13066AA  24324.11849506  .00005881  00000+0  64412-3 0  9996
2 39440  97.8290 264.8430 0067772 125.4226 235.3343 14.86460147592522
NEE-02 KRYSAOR          
1 39441U 13066AB  24324.08877651  .00003078  00000+0  37538-3 0  9990
2 39441  97.8372 259.9850 0072345 150.2456 210.2902 14.82215471592020
FUNCUBE-1 (AO-73)       
1 39444U 13066AE  24323.85299190  .00011155  00000+0  96045-3 0  9996
2 39444  97.7411 280.4623 0044194 349.4200  10.6087 14.96760986593201
UWE-3                   
1 39446U 13066AG  24323.83572820  .00006128  00000+0  63166-3 0  9992
2 39446  97.8005 270.7098 0059242  70.7078 290.0534 14.89280229591699
BRITE-CA1 (TORONTO)     
1 40020U 14033L   24324.22552923  .00001871  00000+0  30147-3 0  9996
2 40020  97.8995  96.2068 0080795 317.5341  41.9632 14.70521330557759
DUCHIFAT-1              
1 40021U 14033M   24324.40378447  .00023385  00000+0  12235-2 0  9995
2 40021  98.1004 317.1851 0008753 303.9548  56.0850 15.15821068567562
NANOSATC-BR1            
1 40024U 14033Q   24323.94500787  .00015271  00000+0  94697-3 0  9998
2 40024  98.0807 303.2787 0007047  32.2315 327.9342 15.09820131566544
QB50P1                  
1 40025U 14033R   24323.86266709  .00011503  00000+0  82308-3 0  9993
2 40025  98.0634 290.3644 0013140  28.7816 331.4131 15.04538600566096
QB50P2                  
1 40032U 14033Y   24323.84465225  .00010606  00000+0  79239-3 0  9995
2 40032  98.0190 280.9217 0008893 336.3461  23.7353 15.02968470565866
PERSEUS-M2              
1 40037U 14033AD  24324.43631804  .00003884  00000+0  38740-3 0  9996
2 40037  97.9377 255.9823 0014191  48.2744 311.9685 14.92082343565462
PERSEUS-M1              
1 40039U 14033AF  24324.27939627  .00003977  00000+0  39776-3 0  9997
2 40039  97.9147 251.4211 0013975  48.0907 312.1501 14.91953011565300
POLYITAN-1              
1 40042U 14033AJ  24323.89283206  .00016263  00000+0  10189-2 0  9991
2 40042  98.0880 295.3684 0011004 346.7049  13.3887 15.09400840566111
TIGRISAT                
1 40043U 14033AK  24323.91955090  .00004518  00000+0  57653-3 0  9990
2 40043  97.7107 120.3226 0053785 158.0080 202.3458 14.80918528560348
AEROCUBE 6A             
1 40045U 14033AM  24323.94524701  .00008595  00000+0  93066-3 0  9993
2 40045  97.6765 131.8129 0047294 131.5248 229.0041 14.87646250561003
AEROCUBE 6B             
1 40046U 14033AN  24324.02003666  .00009516  00000+0  10058-2 0  9999
2 40046  97.6740 130.7428 0046032 125.8644 234.6861 14.88634597561220
CANX-4                  
1 40055U 14034C   24324.36902176  .00002089  00000+0  28896-3 0  9999
2 40055  98.3793 165.6148 0014340  57.5447 302.7147 14.79165419559516
CANX-5                  
1 40056U 14034D   24323.62903319  .00001954  00000+0  27070-3 0  9991
2 40056  98.3796 164.8549 0014373  59.9282 300.3352 14.79172939550186
UKUBE-1                 
1 40074U 14037F   24324.31039450  .00012436  00000+0  10306-2 0  9997
2 40074  98.3528 264.3561 0001026 301.4989  58.6131 14.98996626561974
BRITE-PL2 (HEWELIUSZ)   
1 40119U 14049B   24323.77692820  .00003682  00000+0  38031-3 0  9994
2 40119  97.8881  62.9578 0014589 211.2609 148.7743 14.90695402555596
AEROCUBE 5C             
1 40965U 15058B   24324.06831362  .00005751  00000+0  49634-3 0  9993
2 40965  64.7693 245.3016 0188331 261.8022  96.1690 14.85507808280015
AEROCUBE 7              
1 40966U 15058C   24323.99376254  .00006898  00000+0  56434-3 0  9998
2 40966  64.7659 237.6634 0182064 261.4379  96.6065 14.88012686280138
FOX-1A (AO-85)          
1 40967U 15058D   24323.44926724  .00005701  00000+0  50306-3 0  9996
2 40967  64.7769 261.6464 0186336 257.7535 100.2654 14.84954213 27870
SINOD-D 1               
1 40968U 15058E   24323.98836647  .00007500  00000+0  62301-3 0  9997
2 40968  64.7772 251.0466 0179063 256.5341 101.5761 14.87739200 30812
SNAP-3 ALICE            
1 40970U 15058G   24324.36381242  .00020344  00000+0  11341-2 0  9997
2 40970  64.7664 196.1855 0138261 254.2899 104.2933 15.05772479 29066
LMRST-SAT               
1 40971U 15058H   24324.03757982  .00006140  00000+0  53923-3 0  9991
2 40971  64.7769 255.4027 0187728 258.9493  99.0454 14.84870060 27963
SNAP-3 EDDIE            
1 40972U 15058J   24324.33285273  .00021164  00000+0  11630-2 0  9995
2 40972  64.7635 189.3480 0138329 255.2363 103.3395 15.06235907 31163
PROPCUBE 3              
1 40973U 15058K   24324.19178033  .00007145  00000+0  59508-3 0  9995
2 40973  64.7702 241.1652 0183701 260.2902  97.7418 14.87131110 29052
BISONSAT                
1 40974U 15058L   24323.81678172  .00012171  00000+0  81239-3 0  9994
2 40974  64.7653 210.2220 0157864 257.9529 100.3858 14.97650964 28866
SNAP-3 JIMI             
1 40975U 15058M   24324.16831168  .00009792  00000+0  74299-3 0  9993
2 40975  64.7682 226.5640 0172858 259.2447  98.9165 14.91517452 28107
PROPCUBE 1 (FLORA)      
1 40976U 15058N   24324.15679925  .00006265  00000+0  57126-3 0  9996
2 40976  64.7762 271.3446 0186699 260.2848  97.7130 14.83592721 30761
SINOD-D 3               
1 40977U 15058P   24324.44481229  .00008094  00000+0  69627-3 0  9998
2 40977  64.7743 262.0460 0179287 259.3965  98.6908 14.86371154 29071
HORYU-4                 
1 41340U 16012D   24323.54931874  .00019260  00000+0  75939-3 0  9990
2 41340  31.0024  44.4371 0009912 113.3514 246.8171 15.24330418481650
RAVAN                   
1 41849U 16067B   24323.48410671  .00017324  00000+0  79271-3 0  9996
2 41849  98.0594 150.9313 0010841 221.6284 138.4125 15.20548079439375
CELTEE 1                
1 41850U 16067C   24323.75109024  .00007492  00000+0  46095-3 0  9998
2 41850  98.1075 141.7048 0001963  57.9671 302.1747 15.10342032438728
